OBJECT_NAME,OBJECT_ID,EPOCH,MEAN_MOTION,ECCENTRICITY,INCLINATION,RA_OF_ASC_NODE,ARG_OF_PERICENTER,MEAN_ANOMALY,EPHEMERIS_TYPE,CLASSIFICATION_TYPE,NORAD_CAT_ID,ELEMENT_SET_NO,REV_AT_EPOCH,BSTAR,MEAN_MOTION_DOT,MEAN_MOTION_DDOT
INTELSAT 902 (IS-902),2001-039A,2026-06-27T03:42:42.834816,1.00271329,.00042002,6.1414,71.6622,24.6956,184.4844,0,U,26900,999,9079,0,-.278E-5,0
INTELSAT 904 (IS-904),2002-007A,2026-06-27T04:06:10.517184,1.00273021,.00065264,6.9444,69.0666,11.3406,224.9345,0,U,27380,999,5186,0,-.221E-5,0
DIRECTV 5 (TEMPO 1),2002-023A,2026-06-27T05:08:20.707584,1.00271623,.00035491,4.9029,75.1896,24.8448,142.2764,0,U,27426,999,8822,0,-.5E-6,0
INTELSAT 905 (IS-905),2002-027A,2026-06-27T06:18:13.328928,1.00272236,.00041542,6.7782,69.6805,26.8273,136.2136,0,U,27438,999,5146,0,.99E-6,0
GALAXY 3C (G-3C),2002-030A,2026-06-27T06:59:50.916192,1.00272410,.00019886,3.7583,77.8491,25.5796,182.1006,0,U,27445,999,4659,0,-.145E-5,0
INTELSAT 906 (IS-906),2002-041A,2026-06-26T19:42:02.336832,1.00272159,.00042054,5.8263,72.8033,7.3513,194.4364,0,U,27513,999,8712,0,.19E-6,0
GALAXY 13 (HORIZONS-1),2003-044A,2026-06-27T07:01:38.623296,1.00269901,.00017135,1.4447,83.7366,4.4004,142.6660,0,U,27954,999,4667,0,.143E-5,0
INTELSAT 10-02,2004-022A,2026-06-27T03:56:48.982848,1.00270753,.00001782,0.0268,287.5242,181.8453,224.1091,0,U,28358,999,8065,0,0,0
DIRECTV 8,2005-019A,2026-06-27T05:05:50.947872,1.00271752,.00033048,0.0225,69.9345,29.8497,132.9535,0,U,28659,999,7717,0,.13E-6,0
GALAXY 28 (G-28),2005-022A,2026-06-27T04:47:35.210976,1.00270977,.00022748,3.3235,78.8111,17.0371,224.2616,0,U,28702,999,5207,0,-.192E-5,0
GALAXY 16 (G-16),2006-023A,2026-06-27T05:11:27.908736,1.00272109,.00028874,0.0432,123.6596,321.3815,169.1442,0,U,29236,999,7307,0,-.115E-5,0
DIRECTV 9S,2006-043A,2026-06-27T05:10:57.957312,1.00271904,.00054232,2.4462,80.7914,18.9721,152.1058,0,U,29494,999,5148,0,-.104E-5,0
GALAXY 17 (G-17),2007-016B,2026-06-27T04:33:38.624832,1.00271226,.00045993,2.9969,79.7814,20.0086,158.9136,0,U,31307,999,6990,0,-.197E-5,0
INTELSAT 11 (IS-11),2007-044B,2026-06-27T04:20:24.221760,0.99047741,.00030803,3.5910,78.5553,84.3941,259.3204,0,U,32253,999,6854,0,.38E-6,0
HORIZONS-2,2007-063B,2026-06-27T04:25:38.699616,1.00271244,.00041695,2.6274,80.5108,6.7343,180.6622,0,U,32388,999,6791,0,-.244E-5,0
DIRECTV 11,2008-013A,2026-06-27T05:11:27.908736,1.00269961,.00003615,0.0117,254.5940,224.4814,134.9314,0,U,32729,999,4569,0,-.114E-5,0
GALAXY 18 (G-18),2008-024A,2026-06-27T05:04:43.555008,1.00269996,.00032576,0.0260,21.2817,78.7918,128.4376,0,U,32951,999,4595,0,0,0
GALAXY 19 (G-19),2008-045A,2026-06-27T05:12:05.349312,1.00271296,.0002929,0.0422,260.8302,203.8842,151.6369,0,U,33376,999,6500,0,-.127E-5,0
FM-5,2009-034A,2026-06-27T04:33:38.624832,1.00271055,.00008291,0.0266,288.2610,58.7185,270.5709,0,U,35493,999,4674,0,-.188E-5,0
INTELSAT 14 (IS-14),2009-064A,2026-06-27T04:50:38.683104,1.00272388,.00026887,0.0164,23.6686,71.9109,207.4003,0,U,36097,999,6070,0,-.262E-5,0
INTELSAT 15 (IS-15),2009-067A,2026-06-27T02:38:47.386752,1.00271495,.00025445,0.0141,46.2513,54.0730,299.7482,0,U,36106,999,4132,0,-.173E-5,0
DIRECTV 12,2009-075A,2026-06-27T05:10:28.005024,1.00270719,.00004352,0.0115,111.5028,21.3310,117.3856,0,U,36131,999,4665,0,-.92E-6,0
INTELSAT 16 (IS-16),2010-006A,2026-06-27T04:33:38.624832,1.00272223,.00024251,0.0135,38.6810,70.9486,157.8845,0,U,36397,999,5975,0,-.233E-5,0
XM-5,2010-053A,2026-06-27T05:06:50.851584,1.00272508,.00025421,0.0658,271.4228,281.0011,44.4199,0,U,37185,999,5758,0,-.12E-6,0
INTELSAT 17 (IS-17),2010-065B,2026-06-27T02:33:17.913312,1.00270844,.00023518,0.0115,76.4921,19.9904,283.0606,0,U,37238,999,5334,0,.1E-6,0
INTELSAT 28 (IS-28),2011-016A,2026-06-27T06:08:54.419424,1.00271497,.00040294,1.8318,82.5095,12.5609,240.7929,0,U,37392,999,5338,0,-.215E-5,0
INTELSAT 18 (IS-18),2011-056A,2026-06-27T04:48:30.336768,1.00273269,.00021001,0.0128,310.9419,149.7371,66.7571,0,U,37834,999,5391,0,.65E-6,0
INTELSAT 22 (IS-22),2012-011A,2026-06-27T04:17:39.486336,1.00270723,.00017822,0.0387,56.9895,72.9850,281.8416,0,U,38098,999,728,0,0,0
INTELSAT 19 (IS-19),2012-030A,2026-06-27T04:44:30.720192,1.00271363,.00033624,0.0163,20.8312,81.0314,50.5794,0,U,38356,999,5055,0,-.45E-6,0
INTELSAT 20 (IS-20),2012-043A,2026-06-27T04:16:39.580896,1.00262160,.00010691,0.0061,46.8790,137.8511,223.2248,0,U,38740,999,5084,0,-.11E-6,0
INTELSAT 21 (IS-21),2012-045A,2026-06-27T05:23:16.017216,1.00271590,.00018423,0.0263,70.6891,37.8837,189.5825,0,U,38749,999,5062,0,-.273E-5,0
